{
    "links": {
        "self": "http://www.neowsapp.com/rest/v1/neo/3773750?api_key=iIulBulltgU6a56xZRHN4H3l9WmuAYTsLGpBGhQ2"
    },
    "id": "3773750",
    "neo_reference_id": "3773750",
    "name": "(2017 GH4)",
    "designation": "2017 GH4",
    "nasa_jpl_url": "http://ssd.jpl.nasa.gov/sbdb.cgi?sstr=3773750",
    "absolute_magnitude_h": 25.3,
    "estimated_diameter": {
        "kilometers": {
            "estimated_diameter_min": 0.0231502122,
            "estimated_diameter_max": 0.0517654482
        },
        "meters": {
            "estimated_diameter_min": 23.150212221,
            "estimated_diameter_max": 51.7654482198
        },
        "miles": {
            "estimated_diameter_min": 0.0143848705,
            "estimated_diameter_max": 0.0321655483
        },
        "feet": {
            "estimated_diameter_min": 75.9521422633,
            "estimated_diameter_max": 169.8341531374
        }
    },
    "is_potentially_hazardous_asteroid": false,
    "close_approach_data": [
        {
            "close_approach_date": "1976-11-22",
            "close_approach_date_full": "1976-Nov-22 00:29",
            "epoch_date_close_approach": 217470540000,
            "relative_velocity": {
                "kilometers_per_second": "14.6823135541",
                "kilometers_per_hour": "52856.3287947413",
                "miles_per_hour": "32842.8671891547"
            },
            "miss_distance": {
                "astronomical": "0.0384454355",
                "lunar": "14.9552744095",
                "kilometers": "5751355.262022385",
                "miles": "3573726.443923513"
            },
            "orbiting_body": "Earth"
        },
        {
            "close_approach_date": "2017-02-08",
            "close_approach_date_full": "2017-Feb-08 11:42",
            "epoch_date_close_approach": 1486554120000,
            "relative_velocity": {
                "kilometers_per_second": "8.2029798446",
                "kilometers_per_hour": "29530.7274405997",
                "miles_per_hour": "18349.2456144104"
            },
            "miss_distance": {
                "astronomical": "0.1120882228",
                "lunar": "43.6023186692",
                "kilometers": "16768159.382965436",
                "miles": "10419251.0934815768"
            },
            "orbiting_body": "Venus"
        },
        {
            "close_approach_date": "2017-03-27",
            "close_approach_date_full": "2017-Mar-27 00:14",
            "epoch_date_close_approach": 1490573640000,
            "relative_velocity": {
                "kilometers_per_second": "13.9492923865",
                "kilometers_per_hour": "50217.4525913132",
                "miles_per_hour": "31203.1721393079"
            },
            "miss_distance": {
                "astronomical": "0.0213451996",
                "lunar": "8.3032826444",
                "kilometers": "3193196.394884852",
                "miles": "1984160.2330488776"
            },
            "orbiting_body": "Earth"
        },
        {
            "close_approach_date": "2020-02-02",
            "close_approach_date_full": "2020-Feb-02 10:32",
            "epoch_date_close_approach": 1580639520000,
            "relative_velocity": {
                "kilometers_per_second": "16.0912296969",
                "kilometers_per_hour": "57928.4269088602",
                "miles_per_hour": "35994.4717090081"
            },
            "miss_distance": {
                "astronomical": "0.0558570032",
                "lunar": "21.7283742448",
                "kilometers": "8356088.703303184",
                "miles": "5192232.7532005792"
            },
            "orbiting_body": "Mars"
        }
    ],
    "orbital_data": {
        "orbit_id": "2",
        "orbit_determination_date": "2017-04-05 06:18:42",
        "first_observation_date": "2017-04-01",
        "last_observation_date": "2017-04-05",
        "data_arc_in_days": 4,
        "observations_used": 35,
        "orbit_uncertainty": "8",
        "minimum_orbit_intersection": ".00630619",
        "jupiter_tisserand_invariant": "3.688",
        "epoch_osculation": "2457845.5",
        "eccentricity": ".5815607044068417",
        "semi_major_axis": "1.928865349435292",
        "inclination": ".9143708941536097",
        "ascending_node_longitude": "267.2956428091149",
        "orbital_period": "978.4785148085401",
        "perihelion_distance": ".8071130581117547",
        "perihelion_argument": "216.3635021565668",
        "aphelion_distance": "3.050617640758829",
        "perihelion_time": "2457797.402107433103",
        "mean_anomaly": "17.69608740716296",
        "mean_motion": ".3679181449072916",
        "equinox": "J2000",
        "orbit_class": {
            "orbit_class_type": "APO",
            "orbit_class_description": "Near-Earth asteroid orbits which cross the Earth’s orbit similar to that of 1862 Apollo",
            "orbit_class_range": "a (semi-major axis) > 1.0 AU; q (perihelion) < 1.017 AU"
        }
    },
    "is_sentry_object": false
}